JINJUSat 1B
1 63210U 25052A   26203.23945417  .00017932  00000-0  53814-3 0  9990
2 63210  97.3957 100.0599 0002308   9.1527 350.9758 15.34509377 75479
NUSHSAT 1
1 63211U 25052B   26203.28881465  .00023669  00000-0  64978-3 0  9995
2 63211  97.3931 100.8025 0002316  23.7479 336.3872 15.37246544 75530
TEVEL2-4
1 63213U 25052D   26203.18371493  .00021346  00000-0  61522-3 0  9993
2 63213  97.3852  99.6543 0002876  37.6826 322.4619 15.35744990 75480
TEVEL2-5
1 63214U 25052E   26202.94768145  .00020059  00000-0  58210-3 0  9991
2 63214  97.3850  99.3550 0002922  40.5078 319.6383 15.35543714 75441
TEVEL2-6
1 63215U 25052F   26203.54731274  .00020585  00000-0  59746-3 0  9991
2 63215  97.3857  99.9412 0002921  41.7305 318.4161 15.35532264 75536
TEVEL2-1
1 63217U 25052H   26203.19799207  .00020232  00000-0  59832-3 0  9999
2 63217  97.3828  99.1724 0003605  45.0225 315.1310 15.34943207 75466
TEVEL2-3
1 63218U 25052J   26203.19126495  .00020629  00000-0  60877-3 0  9994
2 63218  97.3841  99.1918 0003537  48.5551 311.5996 15.35007108 75463
TEVEL2-2
1 63219U 25052K   26203.26325918  .00020410  00000-0  60329-3 0  9994
2 63219  97.3827  99.2408 0003675  45.1461 315.0081 15.34957239 75472
TEVEL2-9
1 63237U 25052AD  26202.24254238  .00012991  00000-0  41133-3 0  9994
2 63237  97.3890  97.5180 0007083  39.6084 320.5675 15.32853308 75241
TEVEL2-7
1 63238U 25052AE  26203.46554278  .00018018  00000-0  57417-3 0  9995
2 63238  97.3893  98.6402 0007045  36.4367 323.7354 15.32575977 75423
TEVEL2-8
1 63239U 25052AF  26202.69061748  .00015940  00000-0  50899-3 0  9993
2 63239  97.3893  97.8424 0007206  39.3565 320.8199 15.32536130 75300
SPIRONE
1 66657U 25274H   26203.56031141  .00001755  00000-0  17130-3 0  9997
2 66657  97.7470 132.3483 0010370 255.1441 104.8631 14.93673473 35506
K-HERO
1 66660U 25274L   26203.28727040  .00001794  00000-0  17309-3 0  9991
2 66660  97.7479 132.2658 0012216 261.1714  98.8123 14.94079325 35474
SNUGLITE-III DURI
1 66661U 25274M   26203.34124305  .00001351  00000-0  13163-3 0  9997
2 66661  97.7474 132.3399 0012901 262.0423  97.9333 14.94103846 35481
SAKHACUBE-CHOLBON
1 67290U 25313AU  26203.19485341  .00009547  00000-0  37987-3 0  9998
2 67290  97.3915 277.8031 0008225 222.6234 137.4367 15.25446459 31310
RS95S (QMR-KWT-2)
1 67291U 25313AV  26203.14789575  .00015054  00000-0  56803-3 0  9998
2 67291  97.3912 278.0117 0008020 218.9623 141.1039 15.27100440 31327
Ten-Koh2
1 68261U 25241B   26203.09638250  .00006400  00000-0  27231-3 0  9991
2 68261  51.6563 153.4448 0004696 254.3661 105.6800 15.24223111 20231
JACK-002
1 68417U 26067B   26203.12723685  .00006406  00000-0  30251-3 0  9994
2 68417  97.4584 161.2995 0003472 121.6282 238.5292 15.19772063 17253
DISCO 2
1 68431U 26067R   26202.62782076  .00007355  00000-0  34925-3 0  9999
2 68431  97.4617 160.7957 0001370 159.3869 200.7422 15.19532878 17177
HADES-SA (SpinnyONE)
1 68446U 26067AG  26202.33075419  .00013557  00000-0  62969-3 0  9999
2 68446  97.4419 160.1456 0005116 341.4904  18.6144 15.20113173 17113
PARUS-6U1
1 68456U 26067AS  26202.34100521  .00004419  00000-0  22167-3 0  9997
2 68456  97.4569 160.1909 0004109 323.2275  36.8676 15.17835626 17115
SAL-E
1 68458U 26067AU  26203.12050365  .00007719  00000-0  38050-3 0  9990
2 68458  97.4493 160.8764 0004435 332.8223  27.2778 15.18207755 17237
FSI-SAT 2
1 68792U 26088A   26203.34506220  .00003603  00000-0  24378-3 0  9990
2 68792  97.5114 351.7358 0013870 353.9306   6.1751 15.07079013 13581
OrigamiSat 2
1 68795U 26088D   26203.37061994  .00012732  00000-0  79744-3 0  9990
2 68795  97.5102 352.0112 0013746 320.2463  39.7758 15.09425984 13602
ARICA 2
1 68796U 26088E   26203.31647317  .00003296  00000-0  21395-3 0  9998
2 68796  97.5098 351.9153 0014447 322.3345  37.6871 15.08663927 13592
WASEDA-SAT-ZERO-II
1 68797U 26088F   26203.30594203  .00005815  00000-0  37116-3 0  9990
2 68797  97.5092 351.9267 0014275 321.2646  38.7558 15.08977417 13590
MANGARO-II-Piscus
1 68798U 26088G   26203.29464075  .00003640  00000-0  23347-3 0  9997
2 68798  97.5110 351.9533 0017926 324.4195  35.5837 15.08997748 13592
IO-86
1 40931U          25360.30710720  .00000000  00000-0  12800-3 0    00
2 40931   6.0006 332.5373 0012733 338.8432   8.1437 14.79075515    01
LILIUM-4
1 71922C 26067AC  26089.50133053 -.00014632  00000 0 -74472-3 0    04
2 71922  97.4497  49.1617 0004341   5.9603 355.7042 15.16896692    16
